[{"OBJECT_NAME":"YAOGAN-32 A","OBJECT_ID":"2018-077A","EPOCH":"2026-03-09T23:02:56.675616","MEAN_MOTION":14.63036121,"ECCENTRICITY":0.00017694,"INCLINATION":98.1595,"RA_OF_ASC_NODE":98.6551,"ARG_OF_PERICENTER":95.91,"MEAN_ANOMALY":264.2303,"EPHEMERIS_TYPE":0,"CLASSIFICATION_TYPE":"U","NORAD_CAT_ID":43642,"ELEMENT_SET_NO":999,"REV_AT_EPOCH":39533,"BSTAR":0.00019081707,"MEAN_MOTION_DOT":9.32e-6,"MEAN_MOTION_DDOT":0},{"OBJECT_NAME":"DMSP 5D-2 F13 DEB","OBJECT_ID":"1995-015GX","EPOCH":"2026-03-07T15:04:37.464960","MEAN_MOTION":14.612279,"ECCENTRICITY":0.0024504,"INCLINATION":98.5439,"RA_OF_ASC_NODE":131.014,"ARG_OF_PERICENTER":356.913,"MEAN_ANOMALY":3.1914,"EPHEMERIS_TYPE":0,"CLASSIFICATION_TYPE":"U","NORAD_CAT_ID":42281,"ELEMENT_SET_NO":999,"REV_AT_EPOCH":56896,"BSTAR":0.0030331,"MEAN_MOTION_DOT":0.00014993,"MEAN_MOTION_DDOT":0}]
